COMMENT,ORIGINATOR,NORAD_CAT_ID,OBJECT_NAME,OBJECT_TYPE,CLASSIFICATION_TYPE,INTLDES,EPOCH,EPOCH_MICROSECONDS,MEAN_MOTION,ECCENTRICITY,INCLINATION,RA_OF_ASC_NODE,ARG_OF_PERICENTER,MEAN_ANOMALY,EPHEMERIS_TYPE,ELEMENT_SET_NO,REV_AT_EPOCH,BSTAR,MEAN_MOTION_DOT,MEAN_MOTION_DDOT,FILE,TLE_LINE0,TLE_LINE1,TLE_LINE2,OBJECT_ID,OBJECT_NUMBER,SEMIMAJOR_AXIS,PERIOD,APOGEE,PERIGEE,DECAYED
GENERATED VIA SPACETRACK.ORG API,18 SPCS,38778,ASTRA 2F,PAYLOAD,U,12051A,2023-12-23 21:41:42,735840,1.00269021,0.0004441,0.0819,254.5455,353.4324,197.81,0,999,3203,0,1.61e-06,0,4143662,0 ASTRA 2F,1 38778U 12051A   23357.90396685  .00000161  00000-0  00000-0 0  9996,2 38778   0.0819 254.5455 0004441 353.4324 197.8100  1.00269021 32035,2012-051A,38778,42165.507,1436.136,35806.098,35768.646,0
GENERATED VIA SPACETRACK.ORG API,18 SPCS,38778,ASTRA 2F,PAYLOAD,U,12051A,2023-12-24 11:09:57,759840,1.00269349,0.0004453,0.0808,253.9341,354.4369,40.0275,0,999,4120,0,1.61e-06,0,4144113,0 ASTRA 2F,1 38778U 12051A   23358.46525185  .00000161  00000-0  00000+0 0  9996,2 38778   0.0808 253.9341 0004453 354.4369  40.0275  1.00269349 41207,2012-051A,38778,42165.415,1436.132,35806.056,35768.504,0
GENERATED VIA SPACETRACK.ORG API,18 SPCS,38778,ASTRA 2F,PAYLOAD,U,12051A,2023-12-24 12:53:13,224768,1.0026937,0.0004456,0.0807,253.8456,354.6293,65.808,0,999,3204,0,1.61e-06,0,4144212,0 ASTRA 2F,1 38778U 12051A   23358.53695862  .00000161  00000-0  00000-0 0  9995,2 38778   0.0807 253.8456 0004456 354.6293  65.8080  1.00269370 32048,2012-051A,38778,42165.409,1436.131,35806.063,35768.485,0
GENERATED VIA SPACETRACK.ORG API,18 SPCS,38778,ASTRA 2F,PAYLOAD,U,12051A,2023-12-24 19:45:44,328672,1.00269592,0.0004459,0.0801,253.6825,355.1785,168.8319,0,999,3204,0,1.61e-06,0,4144500,0 ASTRA 2F,1 38778U 12051A   23358.82342973  .00000161  00000-0  00000-0 0  9999,2 38778   0.0801 253.6825 0004459 355.1785 168.8319  1.00269592 32040,2012-051A,38778,42165.347,1436.128,35806.013,35768.41,0
GENERATED VIA SPACETRACK.ORG API,18 SPCS,38778,ASTRA 2F,PAYLOAD,U,12051A,2023-12-25 11:14:01,7808,1.00269981,0.0004456,0.0788,252.8157,356.525,41.0523,0,999,4121,0,1.6e-06,0,4144981,0 ASTRA 2F,1 38778U 12051A   23359.46806722  .00000160  00000-0  00000+0 0  9995,2 38778   0.0788 252.8157 0004456 356.5250  41.0523  1.00269981 41212,2012-051A,38778,42165.238,1436.123,35805.892,35768.314,0
GENERATED VIA SPACETRACK.ORG API,18 SPCS,38778,ASTRA 2F,PAYLOAD,U,12051A,2023-12-25 13:36:42,507360,1.00270034,0.000446,0.0787,252.7143,356.8113,76.6373,0,999,3205,0,1.6e-06,0,4145093,0 ASTRA 2F,1 38778U 12051A   23359.56715865  .00000160  00000-0  00000-0 0  9994,2 38778   0.0787 252.7143 0004460 356.8113  76.6373  1.00270034 32051,2012-051A,38778,42165.223,1436.122,35805.894,35768.282,0
GENERATED VIA SPACETRACK.ORG API,18 SPCS,38778,ASTRA 2F,PAYLOAD,U,12051A,2023-12-25 20:46:42,485664,1.00270247,0.0004455,0.0779,252.426,357.3716,184.1582,0,999,3205,0,1.6e-06,0,4145360,0 ASTRA 2F,1 38778U 12051A   23359.86576951  .00000160  00000-0  00000-0 0  9998,2 38778   0.0779 252.4260 0004455 357.3716 184.1582  1.00270247 32051,2012-051A,38778,42165.163,1436.119,35805.813,35768.244,0
GENERATED VIA SPACETRACK.ORG API,18 SPCS,38778,ASTRA 2F,PAYLOAD,U,12051A,2023-12-26 13:13:42,782304,1.00270609,0.0004412,0.0766,251.4748,359.7856,70.1186,0,999,3206,0,1.59e-06,0,4145944,0 ASTRA 2F,1 38778U 12051A   23360.55118961  .00000159  00000-0  00000-0 0  9997,2 38778   0.0766 251.4748 0004412 359.7856  70.1186  1.00270609 32068,2012-051A,38778,42165.062,1436.114,35805.53,35768.323,0
GENERATED VIA SPACETRACK.ORG API,18 SPCS,38778,ASTRA 2F,PAYLOAD,U,12051A,2023-12-26 17:34:42,567168,1.00270723,0.000441,0.0762,251.3943,0.0953,135.3164,0,999,4123,0,1.59e-06,0,4146158,0 ASTRA 2F,1 38778U 12051A   23360.73243712  .00000159  00000-0  00000+0 0  9999,2 38778   0.0762 251.3943 0004410   0.0953 135.3164  1.00270723 41238,2012-051A,38778,42165.03,1436.112,35805.489,35768.3,0
GENERATED VIA SPACETRACK.ORG API,18 SPCS,38778,ASTRA 2F,PAYLOAD,U,12051A,2023-12-26 21:42:42,543648,1.00270826,0.0004406,0.0757,251.0465,0.5727,197.356,0,999,3207,0,1.59e-06,0,4146233,0 ASTRA 2F,1 38778U 12051A   23360.90465907  .00000159  00000-0  00000-0 0  9991,2 38778   0.0757 251.0465 0004406   0.5727 197.3560  1.00270826 32071,2012-051A,38778,42165.001,1436.111,35805.444,35768.288,0
GENERATED VIA SPACETRACK.ORG API,18 SPCS,38778,ASTRA 2F,PAYLOAD,U,12051A,2023-12-27 13:01:42,633984,1.00271203,0.0004381,0.0745,250.1551,2.0457,67.1521,0,999,3207,0,1.59e-06,0,4146803,0 ASTRA 2F,1 38778U 12051A   23361.54285456  .00000159  00000-0  00000-0 0  9991,2 38778   0.0745 250.1551 0004381   2.0457  67.1521  1.00271203 32074,2012-051A,38778,42164.895,1436.105,35805.233,35768.288,0
GENERATED VIA SPACETRACK.ORG API,18 SPCS,38778,ASTRA 2F,PAYLOAD,U,12051A,2023-12-27 19:43:42,738816,1.00271373,0.0004373,0.0737,249.8832,2.6633,167.5817,0,999,3207,0,1.59e-06,0,4147095,0 ASTRA 2F,1 38778U 12051A   23361.82202244  .00000159  00000-0  00000-0 0  9996,2 38778   0.0737 249.8832 0004373   2.6633 167.5817  1.00271373 32076,2012-051A,38778,42164.847,1436.103,35805.151,35768.274,0
GENERATED VIA SPACETRACK.ORG API,18 SPCS,38778,ASTRA 2F,PAYLOAD,U,12051A,2023-12-28 02:50:13,884864,1.0027155,0.000436,0.0732,249.4361,3.26,274.3537,0,999,4124,0,1.59e-06,0,4147283,0 ASTRA 2F,1 38778U 12051A   23362.11821626  .00000159  00000-0  00000+0 0  9999,2 38778   0.0732 249.4361 0004360   3.2600 274.3537  1.00271550 41243,2012-051A,38778,42164.798,1436.1,35805.047,35768.279,0
GENERATED VIA SPACETRACK.ORG API,18 SPCS,38778,ASTRA 2F,PAYLOAD,U,12051A,2023-12-28 12:19:42,632832,1.00271768,0.0004339,0.0723,248.7863,4.2926,56.7301,0,999,3208,0,1.59e-06,0,4147674,0 ASTRA 2F,1 38778U 12051A   23362.51368788  .00000159  00000-0  00000-0 0  9999,2 38778   0.0723 248.7863 0004339   4.2926  56.7301  1.00271768 32084,2012-051A,38778,42164.737,1436.097,35804.897,35768.306,0
GENERATED VIA SPACETRACK.ORG API,18 SPCS,38778,ASTRA 2F,PAYLOAD,U,12051A,2023-12-28 20:23:42,753696,1.00271963,0.0004323,0.0713,248.3929,5.1118,177.6362,0,999,3208,0,1.59e-06,0,4147928,0 ASTRA 2F,1 38778U 12051A   23362.84980039  .00000159  00000-0  00000-0 0  9994,2 38778   0.0713 248.3929 0004323   5.1118 177.6362  1.00271963 32085,2012-051A,38778,42164.682,1436.094,35804.775,35768.319,0
GENERATED VIA SPACETRACK.ORG API,18 SPCS,38778,ASTRA 2F,PAYLOAD,U,12051A,2023-12-29 04:42:42,745248,1.00272161,0.0004308,0.0707,247.9795,5.7166,302.537,0,999,4125,0,1.59e-06,0,4148389,0 ASTRA 2F,1 38778U 12051A   23363.19632807  .00000159  00000-0  00000+0 0  9999,2 38778   0.0707 247.9795 0004308   5.7166 302.5370  1.00272161 41254,2012-051A,38778,42164.627,1436.092,35804.656,35768.327,0
GENERATED VIA SPACETRACK.ORG API,18 SPCS,38778,ASTRA 2F,PAYLOAD,U,12051A,2023-12-29 12:47:42,586656,1.00272338,0.0004284,0.0698,247.1099,6.8958,63.8092,0,999,3209,0,1.59e-06,0,4148460,0 ASTRA 2F,1 38778U 12051A   23363.53313179  .00000159  00000-0  00000-0 0  9996,2 38778   0.0698 247.1099 0004284   6.8958  63.8092  1.00272338 32092,2012-051A,38778,42164.577,1436.089,35804.505,35768.379,0
GENERATED VIA SPACETRACK.ORG API,18 SPCS,38778,ASTRA 2F,PAYLOAD,U,12051A,2023-12-29 21:17:42,628416,1.00272537,0.0004263,0.0688,246.5913,7.8202,191.2536,0,999,3209,0,1.6e-06,0,4148761,0 ASTRA 2F,1 38778U 12051A   23363.88729894  .00000160  00000-0  00000-0 0  9991,2 38778   0.0688 246.5913 0004263   7.8202 191.2536  1.00272537 32099,2012-051A,38778,42164.521,1436.086,35804.361,35768.411,0
GENERATED VIA SPACETRACK.ORG API,18 SPCS,38778,ASTRA 2F,PAYLOAD,U,12051A,2023-12-30 08:07:22,747008,1.00272781,0.000424,0.0677,245.9804,8.6891,353.8592,0,999,4126,0,1.61e-06,0,4149261,0 ASTRA 2F,1 38778U 12051A   23364.33845772  .00000161  00000-0  00000+0 0  9996,2 38778   0.0677 245.9804 0004240   8.6891 353.8592  1.00272781 41265,2012-051A,38778,42164.453,1436.083,35804.195,35768.44,0
GENERATED VIA SPACETRACK.ORG API,18 SPCS,38778,ASTRA 2F,PAYLOAD,U,12051A,2023-12-30 12:31:42,614400,1.00272873,0.0004223,0.0674,245.6452,9.1756,59.9721,0,999,3210,0,1.61e-06,0,4149332,0 ASTRA 2F,1 38778U 12051A   23364.52202100  .00000161  00000-0  00000-0 0  9990,2 38778   0.0674 245.6452 0004223   9.1756  59.9721  1.00272873 32108,2012-051A,38778,42164.427,1436.081,35804.098,35768.486,0
GENERATED VIA SPACETRACK.ORG API,18 SPCS,38778,ASTRA 2F,PAYLOAD,U,12051A,2023-12-30 20:47:42,867168,1.00273055,0.0004199,0.0664,245.1528,10.0128,183.9693,0,999,3210,0,1.62e-06,0,4149598,0 ASTRA 2F,1 38778U 12051A   23364.86646837  .00000162  00000-0  00000-0 0  9997,2 38778   0.0664 245.1528 0004199  10.0128 183.9693  1.00273055 32101,2012-051A,38778,42164.376,1436.079,35803.946,35768.536,0
GENERATED VIA SPACETRACK.ORG API,18 SPCS,38778,ASTRA 2F,PAYLOAD,U,12051A,2024-01-01 08:15:19,52928,1.00273797,0.0004101,0.0629,242.9683,13.234,356.299,0,999,4128,0,1.66e-06,0,4152486,0 ASTRA 2F,1 38778U 12051A   24001.34397052  .00000166  00000-0  00000+0 0  9994,2 38778   0.0629 242.9683 0004101  13.2340 356.2990  1.00273797 41280,2012-051A,38778,42164.168,1436.068,35803.324,35768.741,0
GENERATED VIA SPACETRACK.ORG API,18 SPCS,38778,ASTRA 2F,PAYLOAD,U,12051A,2024-01-01 15:08:05,871264,1.00273932,0.0004072,0.0624,242.6732,13.6849,99.6227,0,999,3212,0,1.67e-06,0,4152560,0 ASTRA 2F,1 38778U 12051A   24001.63062351  .00000167  00000-0  00000-0 0  9999,2 38778   0.0624 242.6732 0004072  13.6849  99.6227  1.00273932 32127,2012-051A,38778,42164.13,1436.066,35803.164,35768.826,0
GENERATED VIA SPACETRACK.ORG API,18 SPCS,38778,ASTRA 2F,PAYLOAD,U,12051A,2024-01-02 06:35:56,403168,1.00274234,0.0004029,0.0608,241.6501,15.2205,331.7116,0,999,3213,0,1.69e-06,0,4152812,0 ASTRA 2F,1 38778U 12051A   24002.27495837  .00000169  00000-0  00000-0 0  9991,2 38778   0.0608 241.6501 0004029  15.2205 331.7116  1.00274234 32132,2012-051A,38778,42164.045,1436.062,35802.898,35768.923,0
